[
    {
        "Altitude(m)": 576458.7306869823,
        "Argument of Periapsis(deg)": -0.022603160782972403,
        "Eccentricity": 0.0,
        "Inclination(deg)": 97.0,
        "Latitude(deg)": 77.10710883392476,
        "Longitude(deg)": -104.58604375578126,
        "Mean Anomaly(deg)": 79.1004432691875,
        "RAAN(deg)": 30.005947053618513,
        "Satellite Name": "Starlink Shell 3 1649",
        "Satellite Number": 1649,
        "Semi-Major Axis(m)": 6938478.169268562,
        "Time(s)": 570
    },
    {
        "Altitude(m)": 576514.6119378936,
        "Argument of Periapsis(deg)": -0.02299970746337543,
        "Eccentricity": 0.0,
        "Inclination(deg)": 97.0,
        "Latitude(deg)": 77.62538985258536,
        "Longitude(deg)": -106.20648250527454,
        "Mean Anomaly(deg)": 79.72591946689252,
        "RAAN(deg)": 30.006051387892512,
        "Satellite Name": "Starlink Shell 3 1649",
        "Satellite Number": 1649,
        "Semi-Major Axis(m)": 6938478.169268562,
        "Time(s)": 580
    },
    {
        "Altitude(m)": 576567.3701724862,
        "Argument of Periapsis(deg)": -0.023396254143778456,
        "Eccentricity": 0.0,
        "Inclination(deg)": 97.0,
        "Latitude(deg)": 78.13376424758872,
        "Longitude(deg)": -107.96125802452605,
        "Mean Anomaly(deg)": 80.35139566459758,
        "RAAN(deg)": 30.00615572216653,
        "Satellite Name": "Starlink Shell 3 1649",
        "Satellite Number": 1649,
        "Semi-Major Axis(m)": 6938478.169268562,
        "Time(s)": 590
    },
    {
        "Altitude(m)": 576616.9755968184,
        "Argument of Periapsis(deg)": -0.023792800824181483,
        "Eccentricity": 0.0,
        "Inclination(deg)": 97.0,
        "Latitude(deg)": 78.63090847732343,
        "Longitude(deg)": -109.86525354789033,
        "Mean Anomaly(deg)": 80.97687186230262,
        "RAAN(deg)": 30.00626005644054,
        "Satellite Name": "Starlink Shell 3 1649",
        "Satellite Number": 1649,
        "Semi-Major Axis(m)": 6938478.169268562,
        "Time(s)": 600
    },
    {
        "Altitude(m)": 576663.4002134242,
        "Argument of Periapsis(deg)": -0.024189347504584503,
        "Eccentricity": 0.0,
        "Inclination(deg)": 97.0,
        "Latitude(deg)": 79.11528904810294,
        "Longitude(deg)": -111.93486424962117,
        "Mean Anomaly(deg)": 81.60234806000767,
        "RAAN(deg)": 30.006364390714545,
        "Satellite Name": "Starlink Shell 3 1649",
        "Satellite Number": 1649,
        "Semi-Major Axis(m)": 6938478.169268562,
        "Time(s)": 610
    },
    {
        "Altitude(m)": 576706.6178344793,
        "Argument of Periapsis(deg)": -0.02458589418498753,
        "Eccentricity": 0.0,
        "Inclination(deg)": 97.0,
        "Latitude(deg)": 79.58513021927058,
        "Longitude(deg)": -114.18794285429263,
        "Mean Anomaly(deg)": 82.22782425771271,
        "RAAN(deg)": 30.006468724988554,
        "Satellite Name": "Starlink Shell 3 1649",
        "Satellite Number": 1649,
        "Semi-Major Axis(m)": 6938478.169268562,
        "Time(s)": 620
    },
    {
        "Altitude(m)": 576746.6040941095,
        "Argument of Periapsis(deg)": -0.024982440865390556,
        "Eccentricity": 0.0,
        "Inclination(deg)": 97.0,
        "Latitude(deg)": 80.03837965380636,
        "Longitude(deg)": -116.64360950391122,
        "Mean Anomaly(deg)": 82.85330045541775,
        "RAAN(deg)": 30.006573059262564,
        "Satellite Name": "Starlink Shell 3 1649",
        "Satellite Number": 1649,
        "Semi-Major Axis(m)": 6938478.169268562,
        "Time(s)": 630
    },
    {
        "Altitude(m)": 576783.3364598133,
        "Argument of Periapsis(deg)": -0.025378987545793576,
        "Eccentricity": 0.0,
        "Inclination(deg)": 97.0,
        "Latitude(deg)": 80.47267404073897,
        "Longitude(deg)": -119.32185149736497,
        "Mean Anomaly(deg)": 83.47877665312281,
        "RAAN(deg)": 30.00667739353657,
        "Satellite Name": "Starlink Shell 3 1649",
        "Satellite Number": 1649,
        "Semi-Major Axis(m)": 6938478.169268562,
        "Time(s)": 640
    },
    {
        "Altitude(m)": 576816.7942430575,
        "Argument of Periapsis(deg)": -0.025775534226196602,
        "Eccentricity": 0.0,
        "Inclination(deg)": 97.0,
        "Latitude(deg)": 80.885308258698,
        "Longitude(deg)": -122.24282781619173,
        "Mean Anomaly(deg)": 84.10425285082785,
        "RAAN(deg)": 30.00678172781058,
        "Satellite Name": "Starlink Shell 3 1649",
        "Satellite Number": 1649,
        "Semi-Major Axis(m)": 6938478.169268562,
        "Time(s)": 650
    },
    {
        "Altitude(m)": 576846.9586089638,
        "Argument of Periapsis(deg)": -0.026172080906599626,
        "Eccentricity": 0.0,
        "Inclination(deg)": 97.0,
        "Latitude(deg)": 81.27321379871609,
        "Longitude(deg)": -125.42576859798699,
        "Mean Anomaly(deg)": 84.72972904853289,
        "RAAN(deg)": 30.006886062084593,
        "Satellite Name": "Starlink Shell 3 1649",
        "Satellite Number": 1649,
        "Semi-Major Axis(m)": 6938478.169268562,
        "Time(s)": 660
    },
    {
        "Altitude(m)": 576873.8125851506,
        "Argument of Periapsis(deg)": -0.026568627587002652,
        "Eccentricity": 0.0,
        "Inclination(deg)": 97.0,
        "Latitude(deg)": 81.63295488451115,
        "Longitude(deg)": -128.88736570236907,
        "Mean Anomaly(deg)": 85.35520524623792,
        "RAAN(deg)": 30.006990396358596,
        "Satellite Name": "Starlink Shell 3 1649",
        "Satellite Number": 1649,
        "Semi-Major Axis(m)": 6938478.169268562,
        "Time(s)": 670
    },
    {
        "Altitude(m)": 576897.3410696813,
        "Argument of Periapsis(deg)": -0.02696517426740568,
        "Eccentricity": 0.0,
        "Inclination(deg)": 97.0,
        "Latitude(deg)": 81.96075367389102,
        "Longitude(deg)": -132.63958437223573,
        "Mean Anomaly(deg)": 85.98068144394297,
        "RAAN(deg)": 30.00709473063261,
        "Satellite Name": "Starlink Shell 3 1649",
        "Satellite Number": 1649,
        "Semi-Major Axis(m)": 6938478.169268562,
        "Time(s)": 680
    },
    {
        "Altitude(m)": 576917.5308381448,
        "Argument of Periapsis(deg)": -0.0273617209478087,
        "Eccentricity": 0.0,
        "Inclination(deg)": 97.0,
        "Latitude(deg)": 82.25255822022122,
        "Longitude(deg)": -136.6869137040556,
        "Mean Anomaly(deg)": 86.606157641648,
        "RAAN(deg)": 30.00719906490661,
        "Satellite Name": "Starlink Shell 3 1649",
        "Satellite Number": 1649,
        "Semi-Major Axis(m)": 6938478.169268562,
        "Time(s)": 690
    },
    {
        "Altitude(m)": 576934.3705498481,
        "Argument of Periapsis(deg)": -0.027758267628211725,
        "Eccentricity": 0.0,
        "Inclination(deg)": 97.0,
        "Latitude(deg)": 82.5041668941463,
        "Longitude(deg)": -141.02325013559772,
        "Mean Anomaly(deg)": 87.23163383935308,
        "RAAN(deg)": 30.007303399180625,
        "Satellite Name": "Starlink Shell 3 1649",
        "Satellite Number": 1649,
        "Semi-Major Axis(m)": 6938478.169268562,
        "Time(s)": 700
    },
    {
        "Altitude(m)": 576947.8507531242,
        "Argument of Periapsis(deg)": -0.028154814308614752,
        "Eccentricity": 0.0,
        "Inclination(deg)": 97.0,
        "Latitude(deg)": 82.71141845219286,
        "Longitude(deg)": -145.62885792199955,
        "Mean Anomaly(deg)": 87.85711003705809,
        "RAAN(deg)": 30.007407733454635,
        "Satellite Name": "Starlink Shell 3 1649",
        "Satellite Number": 1649,
        "Semi-Major Axis(m)": 6938478.169268562,
        "Time(s)": 710
    },
    {
        "Altitude(m)": 576957.9638897617,
        "Argument of Periapsis(deg)": -0.02855136098901778,
        "Eccentricity": 0.0,
        "Inclination(deg)": 97.0,
        "Latitude(deg)": 82.87044578994836,
        "Longitude(deg)": -150.46811777576335,
        "Mean Anomaly(deg)": 88.48258623476315,
        "RAAN(deg)": 30.00751206772864,
        "Satellite Name": "Starlink Shell 3 1649",
        "Satellite Number": 1649,
        "Semi-Major Axis(m)": 6938478.169268562,
        "Time(s)": 720
    },
    {
        "Altitude(m)": 576964.7042985286,
        "Argument of Periapsis(deg)": -0.028947907669420805,
        "Eccentricity": 0.0,
        "Inclination(deg)": 97.0,
        "Latitude(deg)": 82.97797345850314,
        "Longitude(deg)": -155.4889428851458,
        "Mean Anomaly(deg)": 89.10806243246819,
        "RAAN(deg)": 30.00761640200265,
        "Satellite Name": "Starlink Shell 3 1649",
        "Satellite Number": 1649,
        "Semi-Major Axis(m)": 6938478.169268562,
        "Time(s)": 730
    },
    {
        "Altitude(m)": 576968.0682178428,
        "Argument of Periapsis(deg)": -0.029344454349823825,
        "Eccentricity": 0.0,
        "Inclination(deg)": 97.0,
        "Latitude(deg)": 83.03161815105612,
        "Longitude(deg)": -160.62462172597614,
        "Mean Anomaly(deg)": 89.73353863017323,
        "RAAN(deg)": 30.007720736276664,
        "Satellite Name": "Starlink Shell 3 1649",
        "Satellite Number": 1649,
        "Semi-Major Axis(m)": 6938478.169268562,
        "Time(s)": 740
    },
    {
        "Altitude(m)": 576968.0537875022,
        "Argument of Periapsis(deg)": -0.029741001030226845,
        "Eccentricity": 0.0,
        "Inclination(deg)": 97.0,
        "Latitude(deg)": 83.03013616508666,
        "Longitude(deg)": -165.79832870971944,
        "Mean Anomaly(deg)": 90.35901482787828,
        "RAAN(deg)": 30.007825070550666,
        "Satellite Name": "Starlink Shell 3 1649",
        "Satellite Number": 1649,
        "Semi-Major Axis(m)": 6938478.169268562,
        "Time(s)": 750
    }
]